[
    {
        "Altitude(m)": 570986.9554377828,
        "Argument of Periapsis(deg)": 0.033114955553567506,
        "Eccentricity": 0.0,
        "Inclination(deg)": 53.0,
        "Latitude(deg)": -50.94385889103445,
        "Longitude(deg)": -151.52579983911903,
        "Mean Anomaly(deg)": 255.91256433788797,
        "RAAN(deg)": 64.95071684264009,
        "Satellite Name": "Starlink Shell 1 298",
        "Satellite Number": 298,
        "Semi-Major Axis(m)": 6931778.249405717,
        "Time(s)": 950
    },
    {
        "Altitude(m)": 571060.7406954605,
        "Argument of Periapsis(deg)": 0.03346353403307874,
        "Eccentricity": 0.0,
        "Inclination(deg)": 53.0,
        "Latitude(deg)": -51.13139848594938,
        "Longitude(deg)": -150.62184622354957,
        "Mean Anomaly(deg)": 256.53939554144466,
        "RAAN(deg)": 64.95019807256261,
        "Satellite Name": "Starlink Shell 1 298",
        "Satellite Number": 298,
        "Semi-Major Axis(m)": 6931778.249405717,
        "Time(s)": 960
    },
    {
        "Altitude(m)": 571131.357895918,
        "Argument of Periapsis(deg)": 0.03381211251258998,
        "Eccentricity": 0.0,
        "Inclination(deg)": 53.0,
        "Latitude(deg)": -51.31123337217187,
        "Longitude(deg)": -149.71037752404126,
        "Mean Anomaly(deg)": 257.1662267450013,
        "RAAN(deg)": 64.94967930248514,
        "Satellite Name": "Starlink Shell 1 298",
        "Satellite Number": 298,
        "Semi-Major Axis(m)": 6931778.249405717,
        "Time(s)": 970
    },
    {
        "Altitude(m)": 571198.7788977051,
        "Argument of Periapsis(deg)": 0.034160690992101214,
        "Eccentricity": 0.0,
        "Inclination(deg)": 53.0,
        "Latitude(deg)": -51.48325453710114,
        "Longitude(deg)": -148.79160812933998,
        "Mean Anomaly(deg)": 257.7930579485581,
        "RAAN(deg)": 64.94916053240767,
        "Satellite Name": "Starlink Shell 1 298",
        "Satellite Number": 298,
        "Semi-Major Axis(m)": 6931778.249405717,
        "Time(s)": 980
    },
    {
        "Altitude(m)": 571262.9768256275,
        "Argument of Periapsis(deg)": 0.034509269471612446,
        "Eccentricity": 0.0,
        "Inclination(deg)": 53.0,
        "Latitude(deg)": -51.64735580819863,
        "Longitude(deg)": -147.86576812638404,
        "Mean Anomaly(deg)": 258.4198891521148,
        "RAAN(deg)": 64.9486417623302,
        "Satellite Name": "Starlink Shell 1 298",
        "Satellite Number": 298,
        "Semi-Major Axis(m)": 6931778.249405717,
        "Time(s)": 990
    }
]